NORAD_CAT_ID,OBJECT_NAME,OBJECT_TYPE,EPOCH,MEAN_MOTION,ECCENTRICITY,INCLINATION,RA_OF_ASC_NODE,ARG_OF_PERICENTER,MEAN_ANOMALY,BSTAR,MEAN_MOTION_DOT,MEAN_MOTION_DDOT,TLE_LINE0,TLE_LINE1,TLE_LINE2,SEMIMAJOR_AXIS,PERIOD,APOGEE,PERIGEE,DECAYED
53424.0,STARLINK-4532,PAYLOAD,2024-07-22 13:22:31,15.08843071,0.000126,53.214,265.7784,93.922,266.1916,0.00019545,2.824e-05,0.0,0 STARLINK-4532,1 53424U 22097AN  24204.55731034  .00002824  00000-0  19545-3 0  9991,2 53424  53.2140 265.7784 0001260  93.9220 266.1916 15.08843071108803,6917.871,95.437,540.608,538.864,0.0
53424.0,STARLINK-4532,PAYLOAD,2024-07-23 10:02:32,15.08849585,0.000154,53.2152,261.9104,86.6259,273.491,0.00027185,4.042e-05,0.0,0 STARLINK-4532,1 53424U 22097AN  24205.41842744  .00004042  00000-0  27185-3 0  9991,2 53424  53.2152 261.9104 0001540  86.6259 273.4910 15.08849585108937,6917.851,95.437,540.781,538.651,0.0
53424.0,STARLINK-4532,PAYLOAD,2024-07-24 09:53:19,15.08838946,0.0001501,53.2155,257.4503,86.4306,273.6857,1.7332e-06,-2.6e-06,0.0,0 STARLINK-4532,1 53424U 22097AN  24206.41203229 -.00000260  00000-0  17332-5 0  9995,2 53424  53.2155 257.4503 0001501  86.4306 273.6857 15.08838946108606,6917.884,95.438,540.787,538.71,0.0
53424.0,STARLINK-4532,PAYLOAD,2024-07-24 13:04:05,15.08838259,0.0001504,53.2154,256.8555,86.5045,273.6119,-8.0189e-06,-4.16e-06,0.0,0 STARLINK-4532,1 53424U 22097AN  24206.54451265 -.00000416  00000-0 -80189-5 0  9998,2 53424  53.2154 256.8555 0001504  86.5045 273.6119 15.08838259109103,6917.886,95.438,540.791,538.71,0.0
53424.0,STARLINK-4532,PAYLOAD,2024-07-25 06:33:20,15.08843664,0.0001407,53.2155,253.5854,80.6214,279.4937,0.00011012,1.465e-05,0.0,0 STARLINK-4532,1 53424U 22097AN  24207.27314859  .00001465  00000-0  11012-3 0  9996,2 53424  53.2155 253.5854 0001407  80.6214 279.4937 15.08843664109215,6917.869,95.437,540.708,538.761,0.0
53424.0,STARLINK-4532,PAYLOAD,2024-07-25 09:44:06,15.0884503,0.000144,53.2158,252.9908,82.1737,277.9419,0.00011565,1.553e-05,0.0,0 STARLINK-4532,1 53424U 22097AN  24207.40562733  .00001553  00000-0  11565-3 0  9998,2 53424  53.2158 252.9908 0001440  82.1737 277.9419 15.08845030108750,6917.865,95.437,540.726,538.734,0.0
53424.0,STARLINK-4532,PAYLOAD,2024-07-26 09:34:53,15.0883785,0.0001348,53.2159,248.5283,93.3723,266.7423,0.00010074,1.316e-05,0.0,0 STARLINK-4532,1 53424U 22097AN  24208.39922958  .00001316  00000-0  10074-3 0  9997,2 53424  53.2159 248.5283 0001348  93.3723 266.7423 15.08837850108903,6917.887,95.438,540.684,538.819,0.0
53424.0,STARLINK-4532,PAYLOAD,2024-07-27 06:14:54,15.08840273,0.0001333,53.2153,244.6606,88.4613,271.6532,1.454e-05,-5.6e-07,0.0,0 STARLINK-4532,1 53424U 22097AN  24209.26035024 -.00000056  00000-0  14540-4 0  9997,2 53424  53.2153 244.6606 0001333  88.4613 271.6532 15.08840273109517,6917.88,95.438,540.667,538.822,0.0
53424.0,STARLINK-4532,PAYLOAD,2024-07-27 07:50:17,15.08840376,0.0001337,53.2152,244.3632,88.3305,271.7841,1.1881e-05,-9.9e-07,0.0,0 STARLINK-4532,1 53424U 22097AN  24209.32658997 -.00000099  00000-0  11881-4 0  9996,2 53424  53.2152 244.3632 0001337  88.3305 271.7841 15.08840376109522,6917.879,95.438,540.669,538.819,0.0
53424.0,STARLINK-4532,PAYLOAD,2024-07-28 09:16:27,15.08834874,0.0001357,53.2151,239.6084,91.5874,268.5274,4.8825e-05,4.89e-06,0.0,0 STARLINK-4532,1 53424U 22097AN  24210.38643410  .00000489  00000-0  48825-4 0  9998,2 53424  53.2151 239.6084 0001357  91.5874 268.5274 15.08834874109203,6917.896,95.438,540.7,538.822,0.0
53424.0,STARLINK-4532,PAYLOAD,2024-07-29 10:42:37,15.08839605,0.0001345,53.2147,234.8493,83.1332,276.9814,9.8219e-05,1.276e-05,0.0,0 STARLINK-4532,1 53424U 22097AN  24211.44627257  .00001276  00000-0  98219-4 0  9994,2 53424  53.2147 234.8493 0001345  83.1332 276.9814 15.08839605109369,6917.882,95.438,540.677,538.816,0.0
53424.0,STARLINK-4532,PAYLOAD,2024-07-30 10:33:25,15.08841577,0.0001391,53.2151,230.3887,82.6235,277.4915,8.6408e-05,1.088e-05,0.0,0 STARLINK-4532,1 53424U 22097AN  24212.43987323  .00001088  00000-0  86408-4 0  9995,2 53424  53.2151 230.3887 0001391  82.6235 277.4915 15.08841577109997,6917.876,95.437,540.703,538.778,0.0
53424.0,STARLINK-4532,PAYLOAD,2024-07-30 18:30:20,15.08843076,0.0001381,53.2152,228.9025,88.3901,271.725,9.423e-05,1.212e-05,0.0,0 STARLINK-4532,1 53424U 22097AN  24212.77107185  .00001212  00000-0  94230-4 0  9993,2 53424  53.2152 228.9025 0001381  88.3901 271.7250 15.08843076109565,6917.871,95.437,540.691,538.781,0.0
53424.0,STARLINK-4532,PAYLOAD,2024-07-31 07:13:26,15.0883835,0.0001371,53.2151,226.5216,96.8387,263.2761,2.0774e-05,4.3e-07,0.0,0 STARLINK-4532,1 53424U 22097AN  24213.30099695  .00000043  00000-0  20774-4 0  9992,2 53424  53.2151 226.5216 0001371  96.8387 263.2761 15.08838350109642,6917.885,95.438,540.699,538.802,0.0
53424.0,STARLINK-4532,PAYLOAD,2024-07-31 18:21:07,15.08841567,0.0001407,53.2156,224.4402,96.1264,263.9888,5.6937e-05,6.18e-06,0.0,0 STARLINK-4532,1 53424U 22097AN  24213.76467382  .00000618  00000-0  56937-4 0  9992,2 53424  53.2156 224.4402 0001407  96.1264 263.9888 15.08841567110191,6917.876,95.437,540.714,538.767,0.0
53424.0,STARLINK-4532,PAYLOAD,2024-08-01 05:28:49,15.08852175,0.0001763,53.2157,222.358,90.2512,269.8682,0.00015487,2.178e-05,0.0,0 STARLINK-4532,1 53424U 22097AN  24214.22834532  .00002178  00000-0  15487-3 0  9996,2 53424  53.2157 222.3580 0001763  90.2512 269.8682 15.08852175109789,6917.843,95.437,540.928,538.489,0.0
53424.0,STARLINK-4532,PAYLOAD,2024-08-01 10:14:58,15.08846382,0.0001416,53.2156,221.4662,97.1844,262.9309,0.00010503,1.384e-05,0.0,0 STARLINK-4532,1 53424U 22097AN  24214.42706872  .00001384  00000-0  10503-3 0  9995,2 53424  53.2156 221.4662 0001416  97.1844 262.9309 15.08846382110299,6917.861,95.437,540.705,538.746,0.0
53424.0,STARLINK-4532,PAYLOAD,2024-08-01 18:11:54,15.08848088,0.0001409,53.2157,219.9796,96.7728,263.3425,0.0001145,1.535e-05,0.0,0 STARLINK-4532,1 53424U 22097AN  24214.75826656  .00001535  00000-0  11450-3 0  9994,2 53424  53.2157 219.9796 0001409  96.7728 263.3425 15.08848088110343,6917.856,95.437,540.695,538.746,0.0
53424.0,STARLINK-4532,PAYLOAD,2024-08-02 05:19:36,15.08840711,0.0001527,53.2164,217.8971,112.3531,247.7623,9.4737e-05,1.22e-05,0.0,0 STARLINK-4532,1 53424U 22097AN  24215.22195126  .00001220  00000-0  94737-4 0  9999,2 53424  53.2164 217.8971 0001527 112.3531 247.7623 15.08840711109935,6917.878,95.438,540.8,538.687,0.0
53424.0,STARLINK-4532,PAYLOAD,2024-08-02 10:05:46,15.08837711,0.0001359,53.2154,217.0063,91.8199,268.2949,4.3918e-05,4.11e-06,0.0,0 STARLINK-4532,1 53424U 22097AN  24215.42067560  .00000411  00000-0  43918-4 0  9997,2 53424  53.2154 217.0063 0001359  91.8199 268.2949 15.08837711110445,6917.887,95.438,540.693,538.812,0.0
53424.0,STARLINK-4532,PAYLOAD,2024-08-03 06:45:47,15.0882792,0.0001452,53.2158,213.1424,92.6392,267.4766,0.00020896,3.038e-05,0.0,0 STARLINK-4532,1 53424U 22097AN  24216.28179997  .00003038  00000-0  20896-3 0  9997,2 53424  53.2158 213.1424 0001452  92.6392 267.4766 15.08827920110095,6917.917,95.438,540.787,538.778,0.0
53424.0,STARLINK-4532,PAYLOAD,2024-08-03 16:18:05,15.08846909,0.0001379,53.2156,211.3569,83.7326,276.3823,4.8823e-05,4.89e-06,0.0,0 STARLINK-4532,1 53424U 22097AN  24216.67922937  .00000489  00000-0  48823-4 0  9998,2 53424  53.2156 211.3569 0001379  83.7326 276.3823 15.08846909110157,6917.859,95.437,540.678,538.77,0.0
53424.0,STARLINK-4532,PAYLOAD,2024-08-04 05:01:11,15.08825831,0.0001335,53.2172,208.9844,82.3564,277.7579,5.6216e-05,6.07e-06,0.0,0 STARLINK-4532,1 53424U 22097AN  24217.20916437  .00000607  00000-0  56216-4 0  9993,2 53424  53.2172 208.9844 0001335  82.3564 277.7579 15.08825831110237,6917.924,95.438,540.712,538.865,0.0
53424.0,STARLINK-4532,PAYLOAD,2024-08-04 06:36:35,15.08828205,0.000141,53.2167,208.6845,94.2653,265.8501,-8.166e-06,-4.18e-06,0.0,0 STARLINK-4532,1 53424U 22097AN  24217.27540510 -.00000418  00000-0 -81660-5 0  9999,2 53424  53.2167 208.6845 0001410  94.2653 265.8501 15.08828205110729,6917.916,95.438,540.757,538.806,0.0
53424.0,STARLINK-4532,PAYLOAD,2024-08-04 16:08:52,15.08849947,0.0001444,53.2177,206.9004,88.9494,271.1663,-0.00013251,-2.397e-05,0.0,0 STARLINK-4532,1 53424U 22097AN  24217.67283538 -.00002397  00000-0 -13251-3 0  9994,2 53424  53.2177 206.9004 0001444  88.9494 271.1663 15.08849947110307,6917.85,95.437,540.714,538.716,0.0
53424.0,STARLINK-4532,PAYLOAD,2024-08-05 15:59:39,15.0885433,0.0001378,53.2166,202.4372,96.2357,263.8792,0.00016134,2.282e-05,0.0,0 STARLINK-4532,1 53424U 22097AN  24218.66642478  .00002282  00000-0  16134-3 0  9990,2 53424  53.2166 202.4372 0001378  96.2357 263.8792 15.08854330110459,6917.837,95.437,540.655,538.748,0.0
53424.0,STARLINK-4532,PAYLOAD,2024-08-06 04:42:45,15.08825282,0.0001485,53.2153,200.0587,92.6539,267.4623,-7.9045e-05,-1.545e-05,0.0,0 STARLINK-4532,1 53424U 22097AN  24219.19636521 -.00001545  00000-0 -79045-4 0  9995,2 53424  53.2153 200.0587 0001485  92.6539 267.4623 15.08825282110534,6917.925,95.438,540.818,538.763,0.0
53424.0,STARLINK-4532,PAYLOAD,2024-08-06 07:53:32,15.08827092,0.0001443,53.2151,199.4639,91.8801,268.2357,-4.3799e-05,-9.85e-06,0.0,0 STARLINK-4532,1 53424U 22097AN  24219.32884562 -.00000985  00000-0 -43799-4 0  9994,2 53424  53.2151 199.4639 0001443  91.8801 268.2357 15.08827092111038,6917.92,95.438,540.783,538.787,0.0
53424.0,STARLINK-4532,PAYLOAD,2024-08-06 15:50:27,15.08836721,0.0001406,53.2148,197.9765,90.5834,269.5319,5.2906e-05,5.54e-06,0.0,0 STARLINK-4532,1 53424U 22097AN  24219.66004207  .00000554  00000-0  52906-4 0  9991,2 53424  53.2148 197.9765 0001406  90.5834 269.5319 15.08836721110601,6917.89,95.438,540.728,538.783,0.0
53424.0,STARLINK-4532,PAYLOAD,2024-08-07 07:44:18,15.08851617,0.0001407,53.2145,195.0011,87.6104,272.5049,0.00084179,0.00013139,0.0,0 STARLINK-4532,1 53424U 22097AN  24220.32244008  .00013139  00000-0  84179-3 0  9990,2 53424  53.2145 195.0011 0001407  87.6104 272.5049 15.08851617110705,6917.845,95.437,540.683,538.737,0.0
